{
  "type": "FeatureCollection",
  "features": [
    {
      "type": "Feature",
      "properties": {
        "norad_id": 37069,
        "name": "FENGYUN 1C DEB",
        "group": "fengyun-1c-debris",
        "lat": -24.787358156158614,
        "lon": 133.3610585724315,
        "alt_km": 937.9485195165134,
        "timestamp": "2025-12-10T21:43:22.376882+00:00",
        "meta_object_name": "FENGYUN 1C DEB",
        "meta_object_id": "1999-025EFD",
        "meta_epoch": "2025-12-04T04:55:22.230624",
        "meta_mean_motion": 13.37917724,
        "meta_eccentricity": 0.0425847,
        "meta_inclination": 95.8476,
        "meta_ra_of_asc_node": 312.1985,
        "meta_arg_of_pericenter": 279.5864,
        "meta_mean_anomaly": 75.7415,
        "meta_ephemeris_type": 0,
        "meta_classification_type": "U",
        "meta_norad_cat_id": 37069,
        "meta_element_set_no": 999,
        "meta_rev_at_epoch": 87594,
        "meta_bstar": 0.0066764,
        "meta_mean_motion_dot": 5.926e-05,
        "meta_mean_motion_ddot": 0,
        "tle_line1": "1 37069U 99025EFD 25338.20511841  .00005926  00000+0  66764-2 0  9995",
        "tle_line2": "2 37069  95.8476 312.1985 0425847 279.5864  75.7415 13.37917724875942"
      },
      "geometry": {
        "type": "Point",
        "coordinates": [
          133.3610585724315,
          -24.787358156158614
        ]
      }
    },
    {
      "type": "Feature",
      "properties": {
        "norad_id": 37077,
        "name": "FENGYUN 1C DEB",
        "group": "fengyun-1c-debris",
        "lat": 6.946261942429234,
        "lon": -118.95328111385297,
        "alt_km": 821.015321275826,
        "timestamp": "2025-12-10T21:43:22.376892+00:00",
        "meta_object_name": "FENGYUN 1C DEB",
        "meta_object_id": "1999-025EFM",
        "meta_epoch": "2025-12-10T04:15:26.292096",
        "meta_mean_motion": 14.41185335,
        "meta_eccentricity": 0.00955067,
        "meta_inclination": 99.0349,
        "meta_ra_of_asc_node": 59.1671,
        "meta_arg_of_pericenter": 336.2622,
        "meta_mean_anomaly": 23.4174,
        "meta_ephemeris_type": 0,
        "meta_classification_type": "U",
        "meta_norad_cat_id": 37077,
        "meta_element_set_no": 999,
        "meta_rev_at_epoch": 84918,
        "meta_bstar": 0.00049394672,
        "meta_mean_motion_dot": 1.63e-05,
        "meta_mean_motion_ddot": 0,
        "tle_line1": "1 37077U 99025EFM 25344.17738764  .00001630  00000+0  49395-3 0  9992",
        "tle_line2": "2 37077  99.0349  59.1671 0095506 336.2622  23.4174 14.41185335849184"
      },
      "geometry": {
        "type": "Point",
        "coordinates": [
          -118.95328111385297,
          6.946261942429234
        ]
      }
    },
    {
      "type": "Feature",
      "properties": {
        "norad_id": 37079,
        "name": "FENGYUN 1C DEB",
        "group": "fengyun-1c-debris",
        "lat": -76.05484983539924,
        "lon": -99.1669776717461,
        "alt_km": 704.2004818255336,
        "timestamp": "2025-12-10T21:43:22.376904+00:00",
        "meta_object_name": "FENGYUN 1C DEB",
        "meta_object_id": "1999-025EFP",
        "meta_epoch": "2025-12-08T02:44:01.234752",
        "meta_mean_motion": 14.59611679,
        "meta_eccentricity": 0.00122766,
        "meta_inclination": 98.8583,
        "meta_ra_of_asc_node": 116.7613,
        "meta_arg_of_pericenter": 158.0641,
        "meta_mean_anomaly": 202.1084,
        "meta_ephemeris_type": 0,
        "meta_classification_type": "U",
        "meta_norad_cat_id": 37079,
        "meta_element_set_no": 999,
        "meta_rev_at_epoch": 64548,
        "meta_bstar": 0.0049568396,
        "meta_mean_motion_dot": 0.00023637,
        "meta_mean_motion_ddot": 0,
        "tle_line1": "1 37079U 99025EFP 25342.11390318  .00023637  00000+0  49568-2 0  9997",
        "tle_line2": "2 37079  98.8583 116.7613 0012276 158.0641 202.1084 14.59611679645480"
      },
      "geometry": {
        "type": "Point",
        "coordinates": [
          -99.1669776717461,
          -76.05484983539924
        ]
      }
    },
    {
      "type": "Feature",
      "properties": {
        "norad_id": 37081,
        "name": "FENGYUN 1C DEB",
        "group": "fengyun-1c-debris",
        "lat": 38.48515053577532,
        "lon": 130.23046941887424,
        "alt_km": 706.1182687784549,
        "timestamp": "2025-12-10T21:43:22.376913+00:00",
        "meta_object_name": "FENGYUN 1C DEB",
        "meta_object_id": "1999-025EFR",
        "meta_epoch": "2025-12-04T16:05:13.028352",
        "meta_mean_motion": 14.13719832,
        "meta_eccentricity": 0.026348,
        "meta_inclination": 98.7084,
        "meta_ra_of_asc_node": 131.1485,
        "meta_arg_of_pericenter": 11.9086,
        "meta_mean_anomaly": 348.8157,
        "meta_ephemeris_type": 0,
        "meta_classification_type": "U",
        "meta_norad_cat_id": 37081,
        "meta_element_set_no": 999,
        "meta_rev_at_epoch": 58460,
        "meta_bstar": 0.0070093,
        "meta_mean_motion_dot": 0.00018467,
        "meta_mean_motion_ddot": 0,
        "tle_line1": "1 37081U 99025EFR 25338.67028968  .00018467  00000+0  70093-2 0  9997",
        "tle_line2": "2 37081  98.7084 131.1485 0263480  11.9086 348.8157 14.13719832584606"
      },
      "geometry": {
        "type": "Point",
        "coordinates": [
          130.23046941887424,
          38.48515053577532
        ]
      }
    },
    {
      "type": "Feature",
      "properties": {
        "norad_id": 37400,
        "name": "FENGYUN 1C DEB",
        "group": "fengyun-1c-debris",
        "lat": 30.54970506266748,
        "lon": 7.713126069926493,
        "alt_km": 725.847485981335,
        "timestamp": "2025-12-10T21:43:22.376924+00:00",
        "meta_object_name": "FENGYUN 1C DEB",
        "meta_object_id": "1999-025EFS",
        "meta_epoch": "2025-12-10T08:41:06.536544",
        "meta_mean_motion": 13.63640043,
        "meta_eccentricity": 0.04016046,
        "meta_inclination": 98.8379,
        "meta_ra_of_asc_node": 181.9494,
        "meta_arg_of_pericenter": 142.8432,
        "meta_mean_anomaly": 220.1242,
        "meta_ephemeris_type": 0,
        "meta_classification_type": "U",
        "meta_norad_cat_id": 37400,
        "meta_element_set_no": 999,
        "meta_rev_at_epoch": 80161,
        "meta_bstar": 0.00064319305,
        "meta_mean_motion_dot": 8.43e-06,
        "meta_mean_motion_ddot": 0,
        "tle_line1": "1 37400U 99025EFS 25344.36188121  .00000843  00000+0  64319-3 0  9997",
        "tle_line2": "2 37400  98.8379 181.9494 0401604 142.8432 220.1242 13.63640043801614"
      },
      "geometry": {
        "type": "Point",
        "coordinates": [
          7.713126069926493,
          30.54970506266748
        ]
      }
    },
    {
      "type": "Feature",
      "properties": {
        "norad_id": 37404,
        "name": "FENGYUN 1C DEB",
        "group": "fengyun-1c-debris",
        "lat": -7.036791230150825,
        "lon": 166.7455689622108,
        "alt_km": 760.0563512482258,
        "timestamp": "2025-12-10T21:43:22.376934+00:00",
        "meta_object_name": "FENGYUN 1C DEB",
        "meta_object_id": "1999-025EFW",
        "meta_epoch": "2025-12-09T23:11:10.608000",
        "meta_mean_motion": 14.31626731,
        "meta_eccentricity": 0.00443951,
        "meta_inclination": 98.4529,
        "meta_ra_of_asc_node": 346.8831,
        "meta_arg_of_pericenter": 170.4527,
        "meta_mean_anomaly": 219.5442,
        "meta_ephemeris_type": 0,
        "meta_classification_type": "U",
        "meta_norad_cat_id": 37404,
        "meta_element_set_no": 999,
        "meta_rev_at_epoch": 82701,
        "meta_bstar": 0.0009006261,
        "meta_mean_motion_dot": 2.383e-05,
        "meta_mean_motion_ddot": 0,
        "tle_line1": "1 37404U 99025EFW 25343.96609500  .00002383  00000+0  90063-3 0  9991",
        "tle_line2": "2 37404  98.4529 346.8831 0044395 170.4527 219.5442 14.31626731827010"
      },
      "geometry": {
        "type": "Point",
        "coordinates": [
          166.7455689622108,
          -7.036791230150825
        ]
      }
    },
    {
      "type": "Feature",
      "properties": {
        "norad_id": 37406,
        "name": "FENGYUN 1C DEB",
        "group": "fengyun-1c-debris",
        "lat": -70.2494742452473,
        "lon": -118.3940178768618,
        "alt_km": 781.622658546079,
        "timestamp": "2025-12-10T21:43:22.376946+00:00",
        "meta_object_name": "FENGYUN 1C DEB",
        "meta_object_id": "1999-025EFY",
        "meta_epoch": "2025-12-08T10:49:08.279328",
        "meta_mean_motion": 14.0426894,
        "meta_eccentricity": 0.01499328,
        "meta_inclination": 98.443,
        "meta_ra_of_asc_node": 214.8876,
        "meta_arg_of_pericenter": 278.7211,
        "meta_mean_anomaly": 208.0875,
        "meta_ephemeris_type": 0,
        "meta_classification_type": "U",
        "meta_norad_cat_id": 37406,
        "meta_element_set_no": 999,
        "meta_rev_at_epoch": 63172,
        "meta_bstar": 0.0020822256,
        "meta_mean_motion_dot": 3.616e-05,
        "meta_mean_motion_ddot": 0,
        "tle_line1": "1 37406U 99025EFY 25342.45079027  .00003616  00000+0  20822-2 0  9996",
        "tle_line2": "2 37406  98.4430 214.8876 0149932 278.7211 208.0875 14.04268940631729"
      },
      "geometry": {
        "type": "Point",
        "coordinates": [
          -118.3940178768618,
          -70.2494742452473
        ]
      }
    }
  ]
}